BEIDOU-2 IGSO-5         
1 37948U 11073A   26165.98069916 -.00000164  00000+0  00000+0 0  9991
2 37948  47.6824 271.5735 0113900 221.6334 214.8644  1.00273141 53117
LUCH-5A                 
1 37951U 11074B   26166.50878299 -.00000054  00000+0  00000+0 0  9995
2 37951   8.7499  73.8320 0002163  22.2945 157.7802  1.00270016 53031
BEIDOU-2 G5             
1 38091U 12008A   26166.48451090  .00000058  00000+0  00000+0 0  9995
2 38091   3.5686  69.7030 0009129 272.7924 154.3492  1.00271354 52356
BEIDOU-2 M3             
1 38250U 12018A   26164.96691970 -.00000071  00000+0  00000+0 0  9993
2 38250  55.7612 304.9843 0020094 274.1342  85.6161  1.86229866 95880
BEIDOU-2 M4             
1 38251U 12018B   26164.36225567 -.00000070  00000+0  00000+0 0  9992
2 38251  55.6617 304.2191 0011287 276.0779  83.7740  1.86229521 95872
SES-5                   
1 38652U 12036A   26166.33129780  .00000037  00000+0  00000+0 0  9998
2 38652   0.0492 312.6758 0001778 132.0596 303.1274  1.00271212 44433
BEIDOU-2 M6             
1 38775U 12050B   26164.07202103 -.00000056  00000+0  00000+0 0  9992
2 38775  56.5408  63.0305 0013772 356.7295   3.2873  1.86230840 93236
GSAT-10                 
1 38779U 12051B   26166.48936426 -.00000162  00000+0  00000+0 0  9994
2 38779   0.0850 263.0496 0007755 184.1119  75.7949  1.00269977 50083
NAVSTAR 67 (USA 239)    
1 38833U 12053A   26166.32192713  .00000042  00000+0  00000+0 0  9999
2 38833  53.5856 143.6757 0180191  65.7282 296.1113  2.00567382 99400
GSAT0103 (GALILEO-FM3)  
1 38857U 12055A   26165.54265692 -.00000011  00000+0  00000+0 0  9994
2 38857  55.8050 101.6182 0004917 305.1909  54.7190  1.70473336 84960
BEIDOU-2 G6             
1 38953U 12059A   26166.34698455 -.00000176  00000+0  00000+0 0  9993
2 38953   4.4156  73.5391 0009603 324.3705  74.6716  1.00272283 49896
LUCH-5B                 
1 38977U 12061A   26165.97061167 -.00000141  00000+0  00000+0 0  9996
2 38977  10.4768  49.9003 0002552 149.9655  36.5384  1.00272265 49580
COSMOS 2485 [GLONASS-M] 
1 39155U 13019A   26166.03295426 -.00000025  00000+0  00000+0 0  9995
2 39155  65.4185  73.6770 0023249 234.2304 125.5797  2.13103342102235
NAVSTAR 68 (USA 242)    
1 39166U 13023A   26165.69026820 -.00000018  00000+0  00000+0 0  9995
2 39166  54.5060 269.0754 0141542  51.0316 310.2489  2.00563387 95839
IRNSS-1A                
1 39199U 13034A   26160.59779131  .00000070  00000+0  00000+0 0  9994
2 39199  35.7049  63.9797 0017411 184.2474 279.8453  1.00272948 47299
NAVSTAR 69 (USA 248)    
1 39533U 14008A   26166.19047123  .00000051  00000+0  00000+0 0  9998
2 39533  53.6543 149.4010 0084230 231.2485 127.9755  2.00559604 89646
ASTRA 5B                
1 39617U 14011B   26166.47748508  .00000140  00000+0  00000+0 0  9990
2 39617   0.0461 337.3565 0001737  96.3288  25.4671  1.00272670 44654
COSMOS 2492 [GLONASS-M] 
1 39620U 14012A   26165.05330889 -.00000053  00000+0  00000+0 0  9991
2 39620  65.2995 314.0428 0010453 325.1473  34.7685  2.13103207 95172
IRNSS-1B                
1 39635U 14017A   26165.77103216  .00000132  00000+0  00000+0 0  9990
2 39635  28.9259 240.4448 0023063 189.5629 165.7473  1.00275602 44760
LUCH-5V                 
1 39727U 14023A   26166.27773464 -.00000269  00000+0  00000+0 0  9995
2 39727   5.1267  69.7591 0001845  47.1152 341.3603  1.00275159 44341
NAVSTAR 70 (USA 251)    
1 39741U 14026A   26165.96736685 -.00000079  00000+0  00000+0 0  9992
2 39741  56.4994 331.6038 0038185 326.5886  33.1644  2.00561046 88494
COSMOS 2500 [GLONASS-M] 
1 40001U 14032A   26164.28459738 -.00000051  00000+0  00000+0 0  9995
2 40001  65.2352 313.8168 0007281 184.1744 175.8059  2.13106047 93378
NAVSTAR 71 (USA 256)    
1 40105U 14045A   26166.05910925 -.00000028  00000+0  00000+0 0  9995
2 40105  55.3519  88.5497 0033223 118.2762 242.0482  2.00558179 86037
GSAT0201 (GALILEO 5)    
1 40128U 14050A   26164.64403526 -.00000043  00000+0  00000+0 0  9990
2 40128  48.8793 273.5817 1673953 179.2575 181.0766  1.85519952 78255
GSAT0202 (GALILEO 6)    
1 40129U 14050B   26165.97755825 -.00000039  00000+0  00000+0 0  9995
2 40129  48.8947 272.6125 1675464 180.0339 180.0074  1.85520518 80441
IRNSS-1C                
1 40269U 14061A   26165.84767858 -.00000160  00000+0  00000+0 0  9992
2 40269   6.5121  88.9752 0022726   2.1523 200.1682  1.00269703 42664
NAVSTAR 72 (USA 258)    
1 40294U 14068A   26163.93501465 -.00000061  00000+0  00000+0 0  9995
2 40294  56.9847  31.1185 0066962  70.4280 290.3526  2.00575830 85122
COSMOS 2501 [GLONASS-K] 
1 40315U 14075A   26164.07739897  .00000117  00000+0  00000+0 0  9996
2 40315  63.6161 190.5143 0022567 212.1681 147.7675  2.13101424 89769
NAVSTAR 73 (USA 260)    
1 40534U 15013A   26164.57224106  .00000093  00000+0  00000+0 0  9992
2 40534  53.1681 204.3272 0109430  40.1118 320.7798  2.00551527 81758
GSAT0203 (GALILEO 7)    
1 40544U 15017A   26166.45306799 -.00000083  00000+0  00000+0 0  9995
2 40544  56.7863 341.6427 0002092 278.6810  81.2938  1.70475984 69175
GSAT0204 (GALILEO 8)    
1 40545U 15017B   26165.53569013 -.00000079  00000+0  00000+0 0  9999
2 40545  56.7953 341.6863 0001910 248.0709 111.9109  1.70475571 32203
